STARLINK-36589          
1 67843U 26033Y   26070.25002315 -.01944465  00000+0 -11317-1 0  9993
2 67843  42.9993 261.7388 0001780 259.8595  60.1088 15.80646744  4912
STARLINK-36598          
1 67844U 26033Z   26068.99349844  .00395096  00000+0  17830-2 0  9997
2 67844  42.9981 269.4275 0002048 271.9135  88.1502 15.82154324  4677
STARLINK-36606          
1 67845U 26033AA  26069.93974076  .00194310  00000+0  90238-3 0  9994
2 67845  42.9975 263.6169 0001667 246.0158 114.0539 15.82072065  4820
STARLINK-36658          
1 67846U 26033AB  26070.25002315 -.01942077  00000+0 -12832-1 0  9996
2 67846  42.9994 261.7228 0001799 268.1169  58.0754 15.77892550  4919
STARLINK-36618          
1 67847U 26033AC  26069.96715337  .00282981  37932-4  84637-3 0  9999
2 67847  42.9823 261.1023 0002557 268.2315  91.8267 15.91596498  4850
STARLINK-36660          
1 67848U 26033AD  26070.25002315 -.01934956  00000+0 -13643-1 0  9996
2 67848  42.9995 261.7267 0001906 267.6361  56.7528 15.76439760  4916
STARLINK-36602          
1 67849U 26033AE  26069.81198878  .00579280  00000+0  27166-2 0  9995
2 67849  42.9982 264.3788 0011251 242.7427 117.2299 15.80792597  4802
STARLINK-36840          
1 67850U 26034A   26070.31211123  .00256206  00000+0  12595-2 0  9994
2 67850  53.1578 203.2269 0001051  62.3660 297.7469 15.80941874  4196
STARLINK-36348          
1 67851U 26034B   26070.31136584  .00346576  00000+0  16817-2 0  9993
2 67851  53.1579 203.2208 0000603  73.4600 286.6489 15.80977643  4192
STARLINK-36276          
1 67852U 26034C   26070.24739272  .00260283  00000+0  12778-2 0  9991
2 67852  53.1579 203.5334 0000848  60.1802 299.9305 15.80958859  4185
STARLINK-36785          
1 67853U 26034D   26070.24664188  .00232244  00000+0  11449-2 0  9995
2 67853  53.1581 203.5284 0001164  43.1309 316.9805 15.80946671  4182
STARLINK-36608          
1 67854U 26034E   26070.24588936  .00225540  00000+0  11124-2 0  9993
2 67854  53.1581 203.5223 0000809  57.3697 302.7404 15.80954731  4171
STARLINK-36838          
1 67855U 26034F   26070.30835964  .00204385  00000+0  10134-2 0  9991
2 67855  53.1582 203.2006 0001089  45.4661 314.6450 15.80901932  4199
STARLINK-36843          
1 67856U 26034G   26070.30686014  .00172936  00000+0  86057-3 0  9996
2 67856  53.1581 203.1905 0001003  42.7471 317.3629 15.80916300  4194
STARLINK-36828          
1 67857U 26034H   26070.30761120  .00222864  00000+0  11006-2 0  9996
2 67857  53.1579 203.1961 0000742  66.6393 293.4708 15.80935787  4193
STARLINK-36837          
1 67858U 26034J   26070.24288664  .00215005  00000+0  10635-2 0  9993
2 67858  53.1583 203.5019 0000622   9.7529 350.3506 15.80922804  4187
