[{"OBJECT_NAME":"STARLINK-36589","OBJECT_ID":"2026-033Y","EPOCH":"2026-03-11T06:00:02.000160","MEAN_MOTION":15.80646744,"ECCENTRICITY":0.00017803,"INCLINATION":42.9993,"RA_OF_ASC_NODE":261.7388,"ARG_OF_PERICENTER":259.8595,"MEAN_ANOMALY":60.1088,"EPHEMERIS_TYPE":0,"CLASSIFICATION_TYPE":"U","NORAD_CAT_ID":67843,"ELEMENT_SET_NO":999,"REV_AT_EPOCH":491,"BSTAR":-0.011317066,"MEAN_MOTION_DOT":-0.01944465,"MEAN_MOTION_DDOT":0},{"OBJECT_NAME":"STARLINK-36598","OBJECT_ID":"2026-033Z","EPOCH":"2026-03-09T23:50:38.265216","MEAN_MOTION":15.82154324,"ECCENTRICITY":0.00020482,"INCLINATION":42.9981,"RA_OF_ASC_NODE":269.4275,"ARG_OF_PERICENTER":271.9135,"MEAN_ANOMALY":88.1502,"EPHEMERIS_TYPE":0,"CLASSIFICATION_TYPE":"U","NORAD_CAT_ID":67844,"ELEMENT_SET_NO":999,"REV_AT_EPOCH":467,"BSTAR":0.0017829959,"MEAN_MOTION_DOT":0.00395096,"MEAN_MOTION_DDOT":0},{"OBJECT_NAME":"STARLINK-36606","OBJECT_ID":"2026-033AA","EPOCH":"2026-03-10T22:33:13.601664","MEAN_MOTION":15.82072065,"ECCENTRICITY":0.0001667,"INCLINATION":42.9975,"RA_OF_ASC_NODE":263.6169,"ARG_OF_PERICENTER":246.0158,"MEAN_ANOMALY":114.0539,"EPHEMERIS_TYPE":0,"CLASSIFICATION_TYPE":"U","NORAD_CAT_ID":67845,"ELEMENT_SET_NO":999,"REV_AT_EPOCH":482,"BSTAR":0.00090238375,"MEAN_MOTION_DOT":0.0019431,"MEAN_MOTION_DDOT":0},{"OBJECT_NAME":"STARLINK-36658","OBJECT_ID":"2026-033AB","EPOCH":"2026-03-11T06:00:02.000160","MEAN_MOTION":15.7789255,"ECCENTRICITY":0.00017995,"INCLINATION":42.9994,"RA_OF_ASC_NODE":261.7228,"ARG_OF_PERICENTER":268.1169,"MEAN_ANOMALY":58.0754,"EPHEMERIS_TYPE":0,"CLASSIFICATION_TYPE":"U","NORAD_CAT_ID":67846,"ELEMENT_SET_NO":999,"REV_AT_EPOCH":491,"BSTAR":-0.012831652,"MEAN_MOTION_DOT":-0.01942077,"MEAN_MOTION_DDOT":0},{"OBJECT_NAME":"STARLINK-36618","OBJECT_ID":"2026-033AC","EPOCH":"2026-03-10T23:12:42.051168","MEAN_MOTION":15.91596498,"ECCENTRICITY":0.00025575,"INCLINATION":42.9823,"RA_OF_ASC_NODE":261.1023,"ARG_OF_PERICENTER":268.2315,"MEAN_ANOMALY":91.8267,"EPHEMERIS_TYPE":0,"CLASSIFICATION_TYPE":"U","NORAD_CAT_ID":67847,"ELEMENT_SET_NO":999,"REV_AT_EPOCH":485,"BSTAR":0.00084637349,"MEAN_MOTION_DOT":0.00282981,"MEAN_MOTION_DDOT":3.793192e-5},{"OBJECT_NAME":"STARLINK-36660","OBJECT_ID":"2026-033AD","EPOCH":"2026-03-11T06:00:02.000160","MEAN_MOTION":15.7643976,"ECCENTRICITY":0.00019063,"INCLINATION":42.9995,"RA_OF_ASC_NODE":261.7267,"ARG_OF_PERICENTER":267.6361,"MEAN_ANOMALY":56.7528,"EPHEMERIS_TYPE":0,"CLASSIFICATION_TYPE":"U","NORAD_CAT_ID":67848,"ELEMENT_SET_NO":999,"REV_AT_EPOCH":491,"BSTAR":-0.013643084,"MEAN_MOTION_DOT":-0.01934956,"MEAN_MOTION_DDOT":0},{"OBJECT_NAME":"STARLINK-36602","OBJECT_ID":"2026-033AE","EPOCH":"2026-03-10T19:29:15.830592","MEAN_MOTION":15.80792597,"ECCENTRICITY":0.00112518,"INCLINATION":42.9982,"RA_OF_ASC_NODE":264.3788,"ARG_OF_PERICENTER":242.7427,"MEAN_ANOMALY":117.2299,"EPHEMERIS_TYPE":0,"CLASSIFICATION_TYPE":"U","NORAD_CAT_ID":67849,"ELEMENT_SET_NO":999,"REV_AT_EPOCH":480,"BSTAR":0.002716628,"MEAN_MOTION_DOT":0.0057928,"MEAN_MOTION_DDOT":0},{"OBJECT_NAME":"STARLINK-36840","OBJECT_ID":"2026-034A","EPOCH":"2026-03-11T07:29:26.410272","MEAN_MOTION":15.80941874,"ECCENTRICITY":0.00010511,"INCLINATION":53.1578,"RA_OF_ASC_NODE":203.2269,"ARG_OF_PERICENTER":62.366,"MEAN_ANOMALY":297.7469,"EPHEMERIS_TYPE":0,"CLASSIFICATION_TYPE":"U","NORAD_CAT_ID":67850,"ELEMENT_SET_NO":999,"REV_AT_EPOCH":419,"BSTAR":0.0012594598,"MEAN_MOTION_DOT":0.00256206,"MEAN_MOTION_DDOT":0},{"OBJECT_NAME":"STARLINK-36348","OBJECT_ID":"2026-034B","EPOCH":"2026-03-11T07:28:22.008576","MEAN_MOTION":15.80977643,"ECCENTRICITY":6.031e-5,"INCLINATION":53.1579,"RA_OF_ASC_NODE":203.2208,"ARG_OF_PERICENTER":73.46,"MEAN_ANOMALY":286.6489,"EPHEMERIS_TYPE":0,"CLASSIFICATION_TYPE":"U","NORAD_CAT_ID":67851,"ELEMENT_SET_NO":999,"REV_AT_EPOCH":419,"BSTAR":0.0016817385,"MEAN_MOTION_DOT":0.00346576,"MEAN_MOTION_DDOT":0},{"OBJECT_NAME":"STARLINK-36276","OBJECT_ID":"2026-034C","EPOCH":"2026-03-11T05:56:14.731008","MEAN_MOTION":15.80958859,"ECCENTRICITY":8.487e-5,"INCLINATION":53.1579,"RA_OF_ASC_NODE":203.5334,"ARG_OF_PERICENTER":60.1802,"MEAN_ANOMALY":299.9305,"EPHEMERIS_TYPE":0,"CLASSIFICATION_TYPE":"U","NORAD_CAT_ID":67852,"ELEMENT_SET_NO":999,"REV_AT_EPOCH":418,"BSTAR":0.0012778302,"MEAN_MOTION_DOT":0.00260283,"MEAN_MOTION_DDOT":0},{"OBJECT_NAME":"STARLINK-36785","OBJECT_ID":"2026-034D","EPOCH":"2026-03-11T05:55:09.858432","MEAN_MOTION":15.80946671,"ECCENTRICITY":0.00011642,"INCLINATION":53.1581,"RA_OF_ASC_NODE":203.5284,"ARG_OF_PERICENTER":43.1309,"MEAN_ANOMALY":316.9805,"EPHEMERIS_TYPE":0,"CLASSIFICATION_TYPE":"U","NORAD_CAT_ID":67853,"ELEMENT_SET_NO":999,"REV_AT_EPOCH":418,"BSTAR":0.0011449397,"MEAN_MOTION_DOT":0.00232244,"MEAN_MOTION_DDOT":0},{"OBJECT_NAME":"STARLINK-36608","OBJECT_ID":"2026-034E","EPOCH":"2026-03-11T05:54:04.840704","MEAN_MOTION":15.80954731,"ECCENTRICITY":8.096e-5,"INCLINATION":53.1581,"RA_OF_ASC_NODE":203.5223,"ARG_OF_PERICENTER":57.3697,"MEAN_ANOMALY":302.7404,"EPHEMERIS_TYPE":0,"CLASSIFICATION_TYPE":"U","NORAD_CAT_ID":67854,"ELEMENT_SET_NO":999,"REV_AT_EPOCH":417,"BSTAR":0.001112439,"MEAN_MOTION_DOT":0.0022554,"MEAN_MOTION_DDOT":0},{"OBJECT_NAME":"STARLINK-36838","OBJECT_ID":"2026-034F","EPOCH":"2026-03-11T07:24:02.272896","MEAN_MOTION":15.80901932,"ECCENTRICITY":0.00010897,"INCLINATION":53.1582,"RA_OF_ASC_NODE":203.2006,"ARG_OF_PERICENTER":45.4661,"MEAN_ANOMALY":314.645,"EPHEMERIS_TYPE":0,"CLASSIFICATION_TYPE":"U","NORAD_CAT_ID":67855,"ELEMENT_SET_NO":999,"REV_AT_EPOCH":419,"BSTAR":0.0010133785,"MEAN_MOTION_DOT":0.00204385,"MEAN_MOTION_DDOT":0},{"OBJECT_NAME":"STARLINK-36843","OBJECT_ID":"2026-034G","EPOCH":"2026-03-11T07:21:52.716096","MEAN_MOTION":15.809163,"ECCENTRICITY":0.00010038,"INCLINATION":53.1581,"RA_OF_ASC_NODE":203.1905,"ARG_OF_PERICENTER":42.7471,"MEAN_ANOMALY":317.3629,"EPHEMERIS_TYPE":0,"CLASSIFICATION_TYPE":"U","NORAD_CAT_ID":67856,"ELEMENT_SET_NO":999,"REV_AT_EPOCH":419,"BSTAR":0.00086056502,"MEAN_MOTION_DOT":0.00172936,"MEAN_MOTION_DDOT":0},{"OBJECT_NAME":"STARLINK-36828","OBJECT_ID":"2026-034H","EPOCH":"2026-03-11T07:22:57.607680","MEAN_MOTION":15.80935787,"ECCENTRICITY":7.429e-5,"INCLINATION":53.1579,"RA_OF_ASC_NODE":203.1961,"ARG_OF_PERICENTER":66.6393,"MEAN_ANOMALY":293.4708,"EPHEMERIS_TYPE":0,"CLASSIFICATION_TYPE":"U","NORAD_CAT_ID":67857,"ELEMENT_SET_NO":999,"REV_AT_EPOCH":419,"BSTAR":0.0011005838,"MEAN_MOTION_DOT":0.00222864,"MEAN_MOTION_DDOT":0},{"OBJECT_NAME":"STARLINK-36837","OBJECT_ID":"2026-034J","EPOCH":"2026-03-11T05:49:45.405696","MEAN_MOTION":15.80922804,"ECCENTRICITY":6.228e-5,"INCLINATION":53.1583,"RA_OF_ASC_NODE":203.5019,"ARG_OF_PERICENTER":9.7529,"MEAN_ANOMALY":350.3506,"EPHEMERIS_TYPE":0,"CLASSIFICATION_TYPE":"U","NORAD_CAT_ID":67858,"ELEMENT_SET_NO":999,"REV_AT_EPOCH":418,"BSTAR":0.0010634972,"MEAN_MOTION_DOT":0.00215005,"MEAN_MOTION_DDOT":0}]
